SL-16 R/B               
1 28353U 04021B   25167.43164561 -.00000102  00000+0 -28422-4 0  9995
2 28353  71.0006  71.2361 0002947  81.2780 278.8676 14.14547110 85189
CZ-4B R/B               
1 28415U 04035C   25167.82304954  .00005531  00000+0  22590-3 0  9992
2 28415  97.3787 200.7437 0035800 185.4525 174.6328 15.24202459139358
CZ-2C R/B               
1 28480U 04046B   25167.86364344  .00000108  00000+0  55911-4 0  9998
2 28480  98.1939  94.4704 0138836 220.6114 138.4647 14.26835778 70591
ARIANE 5 R/B            
1 28499U 04049H   25167.65667841  .00001043  00000+0  12278-3 0  9993
2 28499  98.2342 321.8087 0086352 132.5092 228.3458 14.84520600106310
CZ-2D R/B               
1 28738U 05024B   25167.76369760  .00014873  00000+0  32987-3 0  9998
2 28738  97.3672 171.8572 0003900 277.3464  82.7341 15.43830516 98570
ALOS (DAICHI)           
1 28931U 06002A   25167.62964692  .00001338  00000+0  23801-3 0  9997
2 28931  98.0843 120.7969 0002242  74.3653 285.7799 14.68733559 34419
H-2A R/B                
1 28932U 06002B   25167.89249747  .00006003  00000+0  34879-3 0  9995
2 28932  98.2125 288.9080 0059462  63.2061 297.5232 15.11017583 54238
RESURS-DK 1             
1 29228U 06021A   25167.81579984  .00001599  00000+0  10187-3 0  9997
2 29228  69.9311 203.7458 0004918 203.1097 156.9848 15.10991427 47345
GENESIS 1               
1 29252U 06029A   25167.88817391  .00426900  90207-4  62173-3 0  9998
2 29252  64.4931 336.8005 0026970 279.2600  80.5515 16.04144718 47432
CZ-4B R/B               
1 29507U 06046C   25167.93967132  .00003967  00000+0  21964-3 0  9999
2 29507  97.5945 208.5558 0037227 105.6931 254.8412 15.13825493 19808
CZ-2C R/B               
1 31114U 07010B   25167.62329268  .00000095  00000+0  62906-4 0  9997
2 31114  98.3798 289.4906 0058772 349.1001  10.8899 14.20129582941958
COSMO-SKYMED 1          
1 31598U 07023A   25167.86221069  .00000872  00000+0  91494-4 0  9990
2 31598  97.8872 352.3074 0001617 101.6498 258.4902 14.92078927975175
GENESIS 2               
1 31789U 07028A   25167.93220505  .00097851  00000+0  50882-3 0  9997
2 31789  64.4748  31.2136 0021808 301.4852  58.4169 15.80097882994071
COSMOS 2428             
1 31792U 07029A   25167.90327753  .00000315  00000+0  19499-3 0  9990
2 31792  70.9382  41.2701 0005521 266.3472  93.7018 14.12860769926550
SL-16 R/B               
1 31793U 07029B   25167.85559175 -.00000227  00000+0 -92915-4 0  9999
2 31793  70.9766  11.1637 0002194 280.8194  90.5185 14.14787890927776
KORONAS-FOTON           
1 33504U 09003A   25167.77216011  .00006592  00000+0  18187-3 0  9992
2 33504  82.4318 190.7606 0012756  38.8684 321.3474 15.36805289904824
CZ-2C R/B               
1 37731U 11030B   25167.64654884  .00001024  00000+0  13813-3 0  9997
2 37731  97.8148 126.1451 0054594 134.8432  38.4124 14.80214433750725
H-2A R/B                
1 38341U 12025E   25167.30061988  .00002208  00000+0  21408-3 0  9994
2 38341  98.4370 109.2450 0047763 102.7774 257.8787 14.93020774708442
SHIJIAN-16 (SJ-16)      
1 39358U 13057A   25167.85607280  .00000880  00000+0  90836-4 0  9996
2 39358  74.9720 327.9151 0016614  36.7940 323.4384 14.91368516631869
SL-4 R/B                
1 39679U 14021B   25167.74902692  .00005681  00000+0  16178-3 0  9997
2 39679  51.6070 186.5086 0111810 219.1906 140.0940 15.31715268615424
ALOS-2                  
1 39766U 14029A   25167.85410917  .00001505  00000+0  20824-3 0  9992
2 39766  97.9220 265.2607 0001593  95.5443 264.5950 14.79490246597567
YAOGAN-29               
1 41038U 15069A   25167.92085970  .00000400  00000+0  56342-4 0  9995
2 41038  98.0339 190.3389 0002790 111.7810 248.3700 14.82643757516496
ASTRO-H (HITOMI)        
1 41337U 16012A   25167.38481568  .00002315  00000+0  14062-3 0  9998
2 41337  31.0004 272.2766 0010017 178.7383 181.3281 15.08063482511970
HXMT (HUIYAN)           
1 42758U 17034A   25167.90856690  .00003580  00000+0  20433-3 0  9995
2 42758  43.0152  49.9177 0034939 355.6795   4.3746 15.13860258442214
CZ-2C R/B               
1 43521U 18054D   25167.63772450  .00027324  00000+0  41972-3 0  9991
2 43521  35.1398 290.5943 0032981 246.5887 113.1369 15.52624167387068
SAOCOM 1A               
1 43641U 18076A   25167.83642028  .00000382  00000+0  54505-4 0  9999
2 43641  97.8888 354.8222 0001462  91.4279 268.7102 14.82165848361989
H-2A R/B                
1 43682U 18084L   25167.70275170  .00011354  00000+0  38082-3 0  9991
2 43682  98.8769 325.9206 0031938 217.2895 142.6124 15.30627992364969
SAOCOM 1B               
1 46265U 20059A   25167.86768878  .00000364  00000+0  52241-4 0  9998
2 46265  97.8888 353.9558 0001490  93.7730 266.3654 14.82146559259377
CSS (TIANHE)            
1 48274U 21035A   25167.87278390  .00023991  00000+0  30369-3 0  9998
2 48274  41.4647  22.5700 0003761 112.9374 247.1861 15.58925410236104
COSMOS 2550             
1 48865U 21056A   25167.79647754  .00000960  00000+0  34992-4 0  9990
2 48865  67.1403 125.2818 0008390 268.7570  91.2623 15.33835450222686
CZ-2C R/B               
1 52794U 22058K   25167.46647266  .00012452  00000+0  29840-3 0  9995
2 52794  50.1919 230.7872 0055709 173.6404 186.5280 15.40170205168947
GSLV R/B                
1 54149U 22138AN  25167.31505832  .00002560  00000+0  23132-3 0  9993
2 54149  87.3790 255.5546 0023896  43.9223 316.3901 14.94843635144113
XRISM                   
1 57800U 23137A   25167.78180913  .00003270  00000+0  20082-3 0  9990
2 57800  31.0006 198.6809 0008194 248.2805 111.6960 15.08125824 97572
ACS3                    
1 59588U 24077B   25167.74711574  .00011884  00000+0  11587-1 0  9996
2 59588  97.4732 162.1774 0065192  80.9108 279.9418 13.78411092 57431
